NORAD_CAT_ID,OBJECT_NAME,OBJECT_TYPE,EPOCH,MEAN_MOTION,ECCENTRICITY,INCLINATION,RA_OF_ASC_NODE,ARG_OF_PERICENTER,MEAN_ANOMALY,BSTAR,MEAN_MOTION_DOT,MEAN_MOTION_DDOT,TLE_LINE0,TLE_LINE1,TLE_LINE2,SEMIMAJOR_AXIS,PERIOD,APOGEE,PERIGEE,DECAYED
56788.0,STARLINK-6336,PAYLOAD,2023-11-29 14:00:01,15.42413491,0.0003349,70.0009,262.016,260.4284,342.7238,-0.022443,-0.00895902,0.0,0 STARLINK-6336,1 56788U 23078X   23333.58334491 -.00895902  00000-0 -22443-1 0  9996,2 56788  70.0009 262.0160 0003349 260.4284 342.7238 15.42413491 28894,6817.126,93.36,441.274,436.708,0.0
56788.0,STARLINK-6336,PAYLOAD,2023-11-30 06:00:00,15.41113747,0.0003418,70.0008,260.2191,268.5218,73.7897,-0.0233,-0.00890945,0.0,0 STARLINK-6336,1 56788U 23078X   23334.25001157 -.00890945  00000-0 -23300-1 0  9996,2 56788  70.0008 260.2191 0003418 268.5218  73.7897 15.41113747 28993,6820.958,93.439,445.154,440.492,0.0
56788.0,STARLINK-6336,PAYLOAD,2023-11-30 22:00:00,15.39845576,0.0003378,70.0006,258.426,264.3838,173.9474,-0.026043,-0.00949521,0.0,0 STARLINK-6336,1 56788U 23078X   23334.91667824 -.00949521  00000-0 -26043-1 0  9990,2 56788  70.0006 258.4260 0003378 264.3838 173.9474 15.39845576 29099,6824.703,93.516,448.873,444.262,0.0
56788.0,STARLINK-6336,PAYLOAD,2023-12-01 22:00:00,15.3788659,0.0003329,70.0004,255.743,261.1771,315.3374,-0.027652,-0.00945692,0.0,0 STARLINK-6336,1 56788U 23078X   23335.91667824 -.00945692  00000-0 -27652-1 0  9993,2 56788  70.0004 255.7430 0003329 261.1771 315.3374 15.37886590 29251,6830.497,93.635,454.636,450.088,0.0
56788.0,STARLINK-6336,PAYLOAD,2023-12-02 14:00:01,15.36533086,0.0003392,70.0,253.9585,260.5686,44.1746,-0.026646,-0.00877759,0.0,0 STARLINK-6336,1 56788U 23078X   23336.58334491 -.00877759  00000-0 -26646-1 0  9998,2 56788  70.0000 253.9585 0003392 260.5686  44.1746 15.36533086  6035,6834.508,93.717,458.691,454.054,0.0
56788.0,STARLINK-6336,PAYLOAD,2023-12-02 22:00:00,15.35933911,0.0003469,70.0004,253.0677,261.7838,85.8709,-0.029687,-0.0095243,0.0,0 STARLINK-6336,1 56788U 23078X   23336.91667824 -.00952430  00000-0 -29687-1 0  9992,2 56788  70.0004 253.0677 0003469 261.7838  85.8709 15.35933911 29406,6836.285,93.754,460.521,455.778,0.0
56788.0,STARLINK-6336,PAYLOAD,2023-12-03 14:00:01,15.34572211,0.0003378,69.9999,251.2884,263.6285,167.564,-0.028195,-0.00872524,0.0,0 STARLINK-6336,1 56788U 23078X   23337.58334491 -.00872524  00000-0 -28195-1 0  9995,2 56788  69.9999 251.2884 0003378 263.6285 167.5640 15.34572211 29506,6840.328,93.837,464.504,459.883,0.0
56788.0,STARLINK-6336,PAYLOAD,2023-12-04 06:00:00,15.33289911,0.0003228,69.9999,249.5127,271.0514,240.5203,-0.030279,-0.00897414,0.0,0 STARLINK-6336,1 56788U 23078X   23338.25001157 -.00897414  00000-0 -30279-1 0  9991,2 56788  69.9999 249.5127 0003228 271.0514 240.5203 15.33289911 29607,6844.142,93.916,468.216,463.797,0.0
56788.0,STARLINK-6336,PAYLOAD,2023-12-04 16:00:01,15.32453241,0.000335,69.9998,248.4047,261.315,28.9766,-0.029695,-0.00860246,0.0,0 STARLINK-6336,1 56788U 23078X   23338.66668981 -.00860246  00000-0 -29695-1 0  9993,2 56788  69.9998 248.4047 0003350 261.3150  28.9766 15.32453241  5894,6846.633,93.967,470.791,466.204,0.0
56788.0,STARLINK-6336,PAYLOAD,2023-12-04 22:00:00,15.32015793,0.0003281,70.0002,247.7404,263.8849,324.9345,-0.033463,-0.00948094,0.0,0 STARLINK-6336,1 56788U 23078X   23338.91667824 -.00948094  00000-0 -33463-1 0  9992,2 56788  70.0002 247.7404 0003281 263.8849 324.9345 15.32015793 29712,6847.936,93.994,472.048,467.554,0.0
56788.0,STARLINK-6336,PAYLOAD,2023-12-05 14:00:01,15.30652046,0.0003307,70.0,245.9718,261.9314,41.0367,-0.031331,-0.00858044,0.0,0 STARLINK-6336,1 56788U 23078X   23339.58334491 -.00858044  00000-0 -31331-1 0  9994,2 56788  70.0000 245.9718 0003307 261.9314  41.0367 15.30652046 29811,6852.003,94.078,476.134,471.602,0.0
56788.0,STARLINK-6336,PAYLOAD,2023-12-05 22:00:00,15.30060775,0.0003377,70.0002,245.0888,264.65,74.1888,-0.035709,-0.0096375,0.0,0 STARLINK-6336,1 56788U 23078X   23339.91667824 -.00963750  00000-0 -35709-1 0  9994,2 56788  70.0002 245.0888 0003377 264.6500  74.1888 15.30060775  5929,6853.768,94.114,477.947,473.318,0.0
56788.0,STARLINK-6336,PAYLOAD,2023-12-06 06:00:00,15.29388264,0.0003295,69.9999,244.2066,269.5839,104.3692,-0.034956,-0.00915429,0.0,0 STARLINK-6336,1 56788U 23078X   23340.25001157 -.00915429  00000-0 -34956-1 0  9997,2 56788  69.9999 244.2066 0003295 269.5839 104.3692 15.29388264 29916,6855.777,94.155,479.901,475.383,0.0
56788.0,STARLINK-6336,PAYLOAD,2023-12-06 14:00:01,15.28692673,0.0003284,70.0001,243.3255,264.0188,144.2759,-0.033033,-0.00851932,0.0,0 STARLINK-6336,1 56788U 23078X   23340.58334491 -.00851932  00000-0 -33033-1 0  9996,2 56788  70.0001 243.3255 0003284 264.0188 144.2759 15.28692673  6034,6857.856,94.198,481.973,477.469,0.0
56788.0,STARLINK-6336,PAYLOAD,2023-12-06 22:00:00,15.28102444,0.0003301,70.0003,242.4453,267.2245,174.5957,-0.037956,-0.00964326,0.0,0 STARLINK-6336,1 56788U 23078X   23340.91667824 -.00964326  00000-0 -37956-1 0  9992,2 56788  70.0003 242.4453 0003301 267.2245 174.5957 15.28102444  5650,6859.622,94.235,483.752,479.223,0.0
56788.0,STARLINK-6336,PAYLOAD,2023-12-07 06:00:02,15.27434543,0.0003163,70.0,241.5656,271.2435,203.4056,-0.037378,-0.00932824,0.0,0 STARLINK-6336,1 56788U 23078X   23341.25002315 -.00932824  00000-0 -37378-1 0  9994,2 56788  70.0000 241.5656 0003163 271.2435 203.4056 15.27434543 30066,6861.622,94.276,485.657,481.316,0.0
56788.0,STARLINK-6336,PAYLOAD,2023-12-07 14:00:01,15.26735707,0.0003163,70.0002,240.6873,264.0768,242.5665,-0.034893,-0.00847941,0.0,0 STARLINK-6336,1 56788U 23078X   23341.58335648 -.00847941  00000-0 -34893-1 0  9992,2 56788  70.0002 240.6873 0003163 264.0768 242.5665 15.26735707  5762,6863.715,94.319,487.751,483.409,0.0
56788.0,STARLINK-6336,PAYLOAD,2023-12-08 14:00:01,15.24779975,0.0003212,70.0005,238.0569,262.2963,335.5279,-0.036979,-0.00847144,0.0,0 STARLINK-6336,1 56788U 23078X   23342.58334491 -.00847144  00000-0 -36979-1 0  9990,2 56788  70.0005 238.0569 0003212 262.2963 335.5279 15.24779975 30271,6869.583,94.44,493.655,489.242,0.0
56788.0,STARLINK-6336,PAYLOAD,2023-12-08 22:00:00,15.24175526,0.0003295,70.0007,237.182,265.5982,1.0656,-0.041784,-0.00944146,0.0,0 STARLINK-6336,1 56788U 23078X   23342.91667824 -.00944146  00000-0 -41784-1 0  9996,2 56788  70.0007 237.1820 0003295 265.5982   1.0656 15.24175526  5976,6871.399,94.477,495.528,491.0,0.0
56788.0,STARLINK-6336,PAYLOAD,2023-12-09 06:00:00,15.23528438,0.0003327,70.0003,236.3077,268.7043,26.0238,-0.042824,-0.00948769,0.0,0 STARLINK-6336,1 56788U 23078X   23343.25001157 -.00948769  00000-0 -42824-1 0  9996,2 56788  70.0003 236.3077 0003327 268.7043  26.0238 15.23528438 30374,6873.345,94.517,497.497,492.923,0.0
56788.0,STARLINK-6336,PAYLOAD,2023-12-09 14:00:01,15.22822093,0.0003392,70.0007,235.4345,262.8274,59.2021,-0.039125,-0.00845565,0.0,0 STARLINK-6336,1 56788U 23078X   23343.58334491 -.00845565  00000-0 -39125-1 0  9992,2 56788  70.0007 235.4345 0003392 262.8274  59.2021 15.22822093  5967,6875.47,94.561,499.667,495.003,0.0
56788.0,STARLINK-6336,PAYLOAD,2023-12-09 22:00:00,15.22217715,0.0003417,70.0008,234.5621,267.0139,81.5081,-0.044206,-0.00942511,0.0,0 STARLINK-6336,1 56788U 23078X   23343.91667824 -.00942511  00000-0 -44206-1 0  9993,2 56788  70.0008 234.5621 0003417 267.0139  81.5081 15.22217715  6010,6877.29,94.599,501.505,496.805,0.0
56788.0,STARLINK-6336,PAYLOAD,2023-12-10 06:00:00,15.21572396,0.0003388,70.0005,233.6904,270.6607,103.5781,-0.04547,-0.00950523,0.0,0 STARLINK-6336,1 56788U 23078X   23344.25001157 -.00950523  00000-0 -45470-1 0  9998,2 56788  70.0005 233.6904 0003388 270.6607 103.5781 15.21572396 30521,6879.234,94.639,503.43,498.769,0.0
56788.0,STARLINK-6336,PAYLOAD,2023-12-10 14:00:01,15.20867147,0.0003393,70.0007,232.8197,264.6109,134.5819,-0.041572,-0.00847865,0.0,0 STARLINK-6336,1 56788U 23078X   23344.58334491 -.00847865  00000-0 -41572-1 0  9997,2 56788  70.0007 232.8197 0003393 264.6109 134.5819 15.20867147  5915,6881.361,94.683,505.561,500.891,0.0
56788.0,STARLINK-6336,PAYLOAD,2023-12-10 22:00:01,15.20259835,0.0003361,70.0009,231.95,268.6508,154.7528,-0.046806,-0.00942118,0.0,0 STARLINK-6336,1 56788U 23078X   23344.91668981 -.00942118  00000-0 -46806-1 0  9990,2 56788  70.0009 231.9500 0003361 268.6508 154.7528 15.20259835  5962,6883.193,94.721,507.372,502.745,0.0
56788.0,STARLINK-6336,PAYLOAD,2023-12-11 06:00:00,15.19615998,0.0003298,70.0005,231.0809,271.9341,174.7752,-0.048225,-0.00951819,0.0,0 STARLINK-6336,1 56788U 23078X   23345.25001157 -.00951819  00000-0 -48225-1 0  9999,2 56788  70.0005 231.0809 0003298 271.9341 174.7752 15.19615998 30673,6885.137,94.761,509.273,504.732,0.0
56788.0,STARLINK-6336,PAYLOAD,2023-12-11 14:00:01,15.18915009,0.000328,70.0007,230.2129,265.1039,204.2106,-0.044377,-0.00864486,0.0,0 STARLINK-6336,1 56788U 23078X   23345.58334491 -.00864486  00000-0 -44377-1 0  9992,2 56788  70.0007 230.2129 0003280 265.1039 204.2106 15.18915009  5692,6887.255,94.805,511.379,506.861,0.0
56788.0,STARLINK-6336,PAYLOAD,2023-12-11 22:00:01,15.18298366,0.0003217,70.0007,229.3458,268.4501,222.7323,-0.049192,-0.00935713,0.0,0 STARLINK-6336,1 56788U 23078X   23345.91668981 -.00935713  00000-0 -49192-1 0  9995,2 56788  70.0007 229.3458 0003217 268.4501 222.7323 15.18298366 30779,6889.12,94.843,513.201,508.769,0.0
56788.0,STARLINK-6336,PAYLOAD,2023-12-12 14:00:01,15.16963123,0.0003187,70.0003,227.6139,263.6751,268.7205,-0.047364,-0.00871616,0.0,0 STARLINK-6336,1 56788U 23078X   23346.58334491 -.00871616  00000-0 -47364-1 0  9995,2 56788  70.0003 227.6139 0003187 263.6751 268.7205 15.16963123  5850,6893.162,94.927,517.224,512.83,0.0
56788.0,STARLINK-6336,PAYLOAD,2023-12-13 00:00:00,15.16158351,0.0003286,70.0003,226.5333,268.116,18.4884,-0.050053,-0.00898135,0.0,0 STARLINK-6336,1 56788U 23078X   23347.00001157 -.00898135  00000-0 -50053-1 0  9997,2 56788  70.0003 226.5333 0003286 268.1160  18.4884 15.16158351  5928,6895.601,94.977,519.732,515.2,0.0
